TIANWANG 1C (TW-1C)     
1 40926U 15051B   17222.87154200  .00005865  00000-0  13310-3 0  9999
2 40926  97.2260 262.0194 0010665 339.8887 138.7757 15.43380855105351
TIANWANG 1B (TW-1B)     
1 40927U 15051C   17222.84816104  .00005776  00000-0  13610-3 0  9999
2 40927  97.2343 261.9895 0010637 350.8885 110.0634 15.42261054105298
TIANWANG 1A (TW-1A)     
1 40928U 15051D   17222.87273208  .00002898  00000-0  83567-4 0  9996
2 40928  97.2235 257.7043 0012828  10.1174 114.2318 15.36438796105093
LAPAN-A2 (IO-86)        
1 40931U 15052B   17222.61952655  .00000684  00000-0  62228-5 0  9996
2 40931   5.9980 204.6432 0013797 295.9894  63.7063 14.76535783101022
LQSAT                   
1 40958U 15057A   17222.93238810  .00000030  00000-0  12463-4 0  9995
2 40958  97.9756 297.2887 0016768 249.4981 110.4410 14.72976191 99184
CHUBUSAT-2              
1 41338U 16012B   17222.92769261  .00000313  00000-0  17822-4 0  9996
2 41338  31.0033 124.5919 0014104 241.3627 118.5590 14.99769636 81218
CHUBUSAT-3              
1 41339U 16012C   17222.91499784  .00000302  00000-0  16807-4 0  9996
2 41339  31.0106 123.7293 0013994 247.6121 112.3024 14.99972776 81192
OUFTI-1                 
1 41458U 16025C   17222.89395709  .00001617  00000-0  89229-4 0  9999
2 41458  98.1821 263.6071 0175815 106.7434 255.3164 15.03344217 70801
E-ST@R-II               
1 41459U 16025D   17222.92089389  .00002560  00000-0  13918-3 0  9997
2 41459  98.1821 263.5711 0175915 107.1629 254.8939 15.03180531 70793
AAUSAT 4                
1 41460U 16025E   17222.81857733  .00001973  00000-0  10822-3 0  9991
2 41460  98.1736 263.6007 0168834 105.3162 256.6771 15.04115587 70809
NUSAT 1 (LO-87)         
1 41557U 16033B   17222.85819010  .00001221  00000-0  48518-4 0  9997
2 41557  97.4612 302.3743 0014587 168.2594 191.8987 15.27188982 66775
BEESAT-4                
1 41619U 16040W   17222.86756804  .00001230  00000-0  58711-4 0  9992
2 41619  97.4581 284.7198 0010731 232.0503 127.9763 15.20905011 50906
PRATHAM                 
1 41783U 16059A   17222.60784606  .00000049  00000-0  19058-4 0  9995
2 41783  98.1628 283.4063 0033358 352.5700   7.5003 14.62848930 46559
ALSAT 1N                
1 41789U 16059G   17222.82471721  .00000064  00000-0  21474-4 0  9998
2 41789  98.1640 284.2273 0028211 346.2777  13.7648 14.64062799 46600
NAYIF-1 (EO-88)         
1 42017U 17008BX  17222.89933381  .00001358  00000-0  60504-4 0  9994
2 42017  97.4911 284.2429 0007517  41.6888 318.4920 15.23144194 26811
LILACSAT-1              
1 42725U 98067ME  17222.82204170  .00008777  00000-0  12985-3 0  9995
2 42725  51.6400 125.2444 0007371 147.3506 212.7942 15.56132354 11985
MAX VALIER SAT          
1 42778U 17036P   17222.90865298  .00000927  00000-0  45572-4 0  9991
2 42778  97.4476 282.0941 0014596  78.2776 282.0095 15.20426119  7346
